ONEWEB-0319             
1 49105U 21075AG  24194.94149632 -.00000143  00000+0 -40023-3 0  9993
2 49105  87.9182 146.1032 0002163  96.9415 263.1962 13.17649128140869
ONEWEB-0323             
1 49106U 21075AH  24194.91422934 -.00000060  00000+0 -20228-3 0  9993
2 49106  87.8950 130.9047 0002034  85.0083 275.1277 13.12442253142179
ONEWEB-0329             
1 49107U 21075AJ  24194.87365739  .00000057  00000+0  11253-3 0  9990
2 49107  87.9184 146.1207 0001969  87.8319 272.3038 13.17649408140836
ONEWEB-0330             
1 49108U 21075AK  24194.95119105  .00000135  00000+0  31491-3 0  9997
2 49108  87.9184 146.1060 0001866  86.8156 273.3189 13.17647779140880
ONEWEB-0292             
1 49186U 21083A   24194.75006768  .00000073  00000+0  16617-3 0  9994
2 49186  87.8928 100.4712 0002039  79.6569 280.4790 13.13468009138459
ONEWEB-0303             
1 49187U 21083B   24194.79162333  .00000071  00000+0  14801-3 0  9991
2 49187  87.9153 115.6861 0002134  84.1153 276.0222 13.18688417137148
ONEWEB-0306             
1 49188U 21083C   24194.85801724  .00000066  00000+0  13553-3 0  9990
2 49188  87.9151 115.6599 0001903  73.6186 286.5155 13.18685971137195
ONEWEB-0307             
1 49189U 21083D   24194.97305347  .00000224  00000+0  57734-3 0  9999
2 49189  87.8931 100.4271 0001584  71.2686 288.8615 13.13469434138482
